ALOS (DAICHI)           
1 28931U 06002A   24120.14030181  .00002421  00000+0  45534-3 0  9990
2 28931  98.0334  74.2678 0001032  56.5344 303.5958 14.65515648974164
